start=new Date('2023-05-19T00:00:00.000Z').valueOf();
sats=[{"REV_AT_EPOCH":"1492","MEAN_MOTION_DOT":"0.00000024","MEAN_ANOMALY":"94.8547","OBJECT_ID":"2023-021AY","OBJECT_TYPE":"PAYLOAD","SEMIMAJOR_AXIS":"6737.274","OBJECT_NAME":"STARLINK-5462","RCS_SIZE":"LARGE","ELEMENT_SET_NO":"999","INCLINATION":"69.9993","TIME_SYSTEM":"UTC","APOAPSIS":"361.582","ARG_OF_PERICENTER":"265.2235","LAUNCH_DATE":"2023-02-17","TLE_LINE2":"2 55674  69.9993 257.8186 0003627 265.2235  94.8547 15.69916284 14928","TLE_LINE1":"1 55674U 23021AY  23138.43582681  .00000024  00000-0  19720-5 0  9999","MEAN_ELEMENT_THEORY":"SGP4","GP_ID":"232088402","PERIOD":"91.725","RA_OF_ASC_NODE":"257.8186","SITE":"AFWTR","EPHEMERIS_TYPE":"0","PERIAPSIS":"356.695","DECAY_DATE":null,"CLASSIFICATION_TYPE":"U","MEAN_MOTION_DDOT":"0.0000000000000","CENTER_NAME":"EARTH","REF_FRAME":"TEME","BSTAR":"0.00000197200000","FILE":"3911221","MEAN_MOTION":"15.69916284","NORAD_CAT_ID":"55674","EPOCH":"2023-05-18T10:27:35.436384","COUNTRY_CODE":"US","ECCENTRICITY":"0.00036270"},{"REV_AT_EPOCH":"1492","OBJECT_ID":"2023-021AZ","MEAN_ANOMALY":"90.8742","MEAN_MOTION_DOT":"-0.00000147","RCS_SIZE":"LARGE","OBJECT_NAME":"STARLINK-5232","OBJECT_TYPE":"PAYLOAD","SEMIMAJOR_AXIS":"6737.272","TIME_SYSTEM":"UTC","ELEMENT_SET_NO":"999","INCLINATION":"69.9983","LAUNCH_DATE":"2023-02-17","APOAPSIS":"361.666","ARG_OF_PERICENTER":"269.2024","SITE":"AFWTR","EPHEMERIS_TYPE":"0","PERIOD":"91.725","RA_OF_ASC_NODE":"257.8196","MEAN_ELEMENT_THEORY":"SGP4","GP_ID":"232087150","TLE_LINE2":"2 55675  69.9983 257.8196 0003755 269.2024  90.8742 15.69916951 14925","TLE_LINE1":"1 55675U 23021AZ  23138.43614363 -.00000147  00000-0  55026-6 0  9990","CENTER_NAME":"EARTH","BSTAR":"0.00000055026000","REF_FRAME":"TEME","MEAN_MOTION_DDOT":"0.0000000000000","CLASSIFICATION_TYPE":"U","PERIAPSIS":"356.607","DECAY_DATE":null,"COUNTRY_CODE":"US","ECCENTRICITY":"0.00037550","NORAD_CAT_ID":"55675","EPOCH":"2023-05-18T10:28:02.809632","FILE":"3911221","MEAN_MOTION":"15.69916951"},{"OBJECT_NAME":"STARLINK-5300","OBJECT_TYPE":"PAYLOAD","SEMIMAJOR_AXIS":"6737.244","RCS_SIZE":"LARGE","TIME_SYSTEM":"UTC","ELEMENT_SET_NO":"999","INCLINATION":"70.0020","REV_AT_EPOCH":"1492","MEAN_ANOMALY":"87.1969","OBJECT_ID":"2023-021BA","MEAN_MOTION_DOT":"0.00001467","PERIAPSIS":"356.680","DECAY_DATE":null,"CENTER_NAME":"EARTH","BSTAR":"0.00001396300000","REF_FRAME":"TEME","MEAN_MOTION_DDOT":"0.0000000000000","CLASSIFICATION_TYPE":"U","NORAD_CAT_ID":"55676","EPOCH":"2023-05-18T10:27:07.518816","FILE":"3911221","MEAN_MOTION":"15.69926668","COUNTRY_CODE":"US","ECCENTRICITY":"0.00036050","APOAPSIS":"361.538","ARG_OF_PERICENTER":"272.8815","LAUNCH_DATE":"2023-02-17","MEAN_ELEMENT_THEORY":"SGP4","GP_ID":"232087400","TLE_LINE1":"1 55676U 23021BA  23138.43550369  .00001467  00000-0  13963-4 0  9993","TLE_LINE2":"2 55676  70.0020 257.8184 0003605 272.8815  87.1969 15.69926668 14926","SITE":"AFWTR","EPHEMERIS_TYPE":"0","PERIOD":"91.724","RA_OF_ASC_NODE":"257.8184"},{"LAUNCH_DATE":"2023-02-17","ARG_OF_PERICENTER":"252.6514","APOAPSIS":"361.070","RA_OF_ASC_NODE":"257.8187","PERIOD":"91.724","EPHEMERIS_TYPE":"0","SITE":"AFWTR","TLE_LINE2":"2 55677  70.0021 257.8187 0002926 252.6514 107.4362 15.69930081 14925","TLE_LINE1":"1 55677U 23021BB  23138.43539874  .00002610  00000-0  23465-4 0  9991","GP_ID":"232088152","MEAN_ELEMENT_THEORY":"SGP4","MEAN_MOTION_DDOT":"0.0000000000000","CLASSIFICATION_TYPE":"U","REF_FRAME":"TEME","BSTAR":"0.00002346500000","CENTER_NAME":"EARTH","DECAY_DATE":null,"PERIAPSIS":"357.128","ECCENTRICITY":"0.00029260","COUNTRY_CODE":"US","MEAN_MOTION":"15.69930081","FILE":"3911221","EPOCH":"2023-05-18T10:26:58.451136","NORAD_CAT_ID":"55677","REV_AT_EPOCH":"1492","MEAN_MOTION_DOT":"0.00002610","OBJECT_ID":"2023-021BB","MEAN_ANOMALY":"107.4362","RCS_SIZE":"LARGE","SEMIMAJOR_AXIS":"6737.234","OBJECT_TYPE":"PAYLOAD","OBJECT_NAME":"STARLINK-5324","INCLINATION":"70.0021","ELEMENT_SET_NO":"999","TIME_SYSTEM":"UTC"},{"PERIOD":"91.724","RA_OF_ASC_NODE":"256.9237","SITE":"AFWTR","EPHEMERIS_TYPE":"0","TLE_LINE2":"2 55678  70.0006 256.9237 0002978 270.0506  90.0348 15.69921883 14973","TLE_LINE1":"1 55678U 23021BC  23138.75451502  .00000700  00000-0  75923-5 0  9993","MEAN_ELEMENT_THEORY":"SGP4","GP_ID":"232117128","LAUNCH_DATE":"2023-02-17","APOAPSIS":"361.129","ARG_OF_PERICENTER":"270.0506","COUNTRY_CODE":"US","ECCENTRICITY":"0.00029780","FILE":"3911388","MEAN_MOTION":"15.69921883","NORAD_CAT_ID":"55678","EPOCH":"2023-05-18T18:06:30.097728","CLASSIFICATION_TYPE":"U","MEAN_MOTION_DDOT":"0.0000000000000","CENTER_NAME":"EARTH","BSTAR":"0.00000759230000","REF_FRAME":"TEME","PERIAPSIS":"357.116","DECAY_DATE":null,"MEAN_MOTION_DOT":"0.00000700","MEAN_ANOMALY":"90.0348","OBJECT_ID":"2023-021BC","REV_AT_EPOCH":"1497","ELEMENT_SET_NO":"999","INCLINATION":"70.0006","TIME_SYSTEM":"UTC","RCS_SIZE":"LARGE","OBJECT_TYPE":"PAYLOAD","SEMIMAJOR_AXIS":"6737.257","OBJECT_NAME":"STARLINK-5314"},{"MEAN_MOTION_DDOT":"0.0000000000000","CLASSIFICATION_TYPE":"U","CENTER_NAME":"EARTH","BSTAR":"0.00004911000000","REF_FRAME":"TEME","PERIAPSIS":"353.992","DECAY_DATE":null,"COUNTRY_CODE":"US","ECCENTRICITY":"0.00014580","FILE":"3911388","MEAN_MOTION":"15.71373162","NORAD_CAT_ID":"55695","EPOCH":"2023-05-18T18:58:47.779392","LAUNCH_DATE":"2023-02-27","APOAPSIS":"355.955","ARG_OF_PERICENTER":"289.4461","PERIOD":"91.640","RA_OF_ASC_NODE":"163.6833","SITE":"AFETR","EPHEMERIS_TYPE":"0","TLE_LINE1":"1 55695U 23026A   23138.79083078  .00005997  00000-0  49110-4 0  9991","TLE_LINE2":"2 55695  43.0006 163.6833 0001458 289.4461  70.6250 15.71373162 13737","MEAN_ELEMENT_THEORY":"SGP4","GP_ID":"232117630","RCS_SIZE":"LARGE","OBJECT_TYPE":"PAYLOAD","SEMIMAJOR_AXIS":"6733.109","OBJECT_NAME":"STARLINK-30050","ELEMENT_SET_NO":"999","INCLINATION":"43.0006","TIME_SYSTEM":"UTC","REV_AT_EPOCH":"1373","MEAN_MOTION_DOT":"0.00005997","MEAN_ANOMALY":"70.6250","OBJECT_ID":"2023-026A"},{"MEAN_MOTION_DOT":"0.04496498","MEAN_ANOMALY":"144.2210","OBJECT_ID":"2023-026B","REV_AT_EPOCH":"1238","ELEMENT_SET_NO":"999","INCLINATION":"42.9813","TIME_SYSTEM":"UTC","RCS_SIZE":"LARGE","OBJECT_TYPE":"PAYLOAD","SEMIMAJOR_AXIS":"6594.625","OBJECT_NAME":"STARLINK-30038","PERIOD":"88.827","RA_OF_ASC_NODE":"206.5217","SITE":"AFETR","EPHEMERIS_TYPE":"0","TLE_LINE1":"1 55696U 23026B   23130.93215456  .04496498  89974-5  20037-2 0  9998","TLE_LINE2":"2 55696  42.9813 206.5217 0011107  23.1097 144.2210 16.21129109 12385","MEAN_ELEMENT_THEORY":"SGP4","GP_ID":"231605174","LAUNCH_DATE":"2023-02-27","APOAPSIS":"223.815","ARG_OF_PERICENTER":"23.1097","ECCENTRICITY":"0.00111070","COUNTRY_CODE":"US","FILE":"3905210","MEAN_MOTION":"16.21129109","NORAD_CAT_ID":"55696","EPOCH":"2023-05-10T22:22:18.153984","MEAN_MOTION_DDOT":"0.0000089974000","CLASSIFICATION_TYPE":"U","CENTER_NAME":"EARTH","REF_FRAME":"TEME","BSTAR":"0.00200370000000","PERIAPSIS":"209.165","DECAY_DATE":null},{"TIME_SYSTEM":"UTC","INCLINATION":"42.9955","ELEMENT_SET_NO":"999","RCS_SIZE":"LARGE","OBJECT_NAME":"STARLINK-30040","SEMIMAJOR_AXIS":"6727.603","OBJECT_TYPE":"PAYLOAD","MEAN_ANOMALY":"130.4981","OBJECT_ID":"2023-026C","MEAN_MOTION_DOT":"-0.00434023","REV_AT_EPOCH":"130","ECCENTRICITY":"0.00007020","COUNTRY_CODE":"US","EPOCH":"2023-05-18T22:00:00.999936","NORAD_CAT_ID":"55697","MEAN_MOTION":"15.73302618","FILE":"3911388","REF_FRAME":"TEME","BSTAR":"-0.00320380000000","CENTER_NAME":"EARTH","MEAN_MOTION_DDOT":"0.0000000000000","CLASSIFICATION_TYPE":"U","DECAY_DATE":null,"PERIAPSIS":"348.995","EPHEMERIS_TYPE":"0","SITE":"AFETR","RA_OF_ASC_NODE":"160.1611","PERIOD":"91.527","GP_ID":"232117881","MEAN_ELEMENT_THEORY":"SGP4","TLE_LINE1":"1 55697U 23026C   23138.91667824 -.00434023  00000-0 -32038-2 0  9991","TLE_LINE2":"2 55697  42.9955 160.1611 0000702 242.5504 130.4981 15.73302618  1301","LAUNCH_DATE":"2023-02-27","ARG_OF_PERICENTER":"242.5504","APOAPSIS":"349.940"},{"GP_ID":"232118632","MEAN_ELEMENT_THEORY":"SGP4","TLE_LINE1":"1 55698U 23026D   23138.91667824  .00184451  00000-0  96603-3 0  9996","TLE_LINE2":"2 55698  42.9959 162.0178 0004789 104.4999 247.2299 15.79480444  1307","EPHEMERIS_TYPE":"0","SITE":"AFETR","RA_OF_ASC_NODE":"162.0178","PERIOD":"91.169","ARG_OF_PERICENTER":"104.4999","APOAPSIS":"335.127","LAUNCH_DATE":"2023-02-27","EPOCH":"2023-05-18T22:00:00.999936","NORAD_CAT_ID":"55698","MEAN_MOTION":"15.79480444","FILE":"3911388","COUNTRY_CODE":"US","ECCENTRICITY":"0.00047890","DECAY_DATE":null,"PERIAPSIS":"328.700","REF_FRAME":"TEME","BSTAR":"0.00096603000000","CENTER_NAME":"EARTH","CLASSIFICATION_TYPE":"U","MEAN_MOTION_DDOT":"0.0000000000000","OBJECT_ID":"2023-026D","MEAN_ANOMALY":"247.2299","MEAN_MOTION_DOT":"0.00184451","REV_AT_EPOCH":"130","TIME_SYSTEM":"UTC","INCLINATION":"42.9959","ELEMENT_SET_NO":"999","OBJECT_NAME":"STARLINK-30061","SEMIMAJOR_AXIS":"6710.049","OBJECT_TYPE":"PAYLOAD","RCS_SIZE":"LARGE"},{"OBJECT_NAME":"STARLINK-30055","OBJECT_TYPE":"PAYLOAD","SEMIMAJOR_AXIS":"6733.119","RCS_SIZE":"LARGE","TIME_SYSTEM":"UTC","ELEMENT_SET_NO":"999","INCLINATION":"42.9993","REV_AT_EPOCH":"1352","OBJECT_ID":"2023-026E","MEAN_ANOMALY":"101.1792","MEAN_MOTION_DOT":"0.00004618","PERIAPSIS":"354.287","DECAY_DATE":null,"CENTER_NAME":"EARTH","REF_FRAME":"TEME","BSTAR":"0.00003862000000","CLASSIFICATION_TYPE":"U","MEAN_MOTION_DDOT":"0.0000000000000","NORAD_CAT_ID":"55699","EPOCH":"2023-05-18T12:39:07.987392","FILE":"3911370","MEAN_MOTION":"15.71369454","ECCENTRICITY":"0.00010350","COUNTRY_CODE":"US","APOAPSIS":"355.681","ARG_OF_PERICENTER":"258.8959","LAUNCH_DATE":"2023-02-27","MEAN_ELEMENT_THEORY":"SGP4","GP_ID":"232092194","TLE_LINE1":"1 55699U 23026E   23138.52717578  .00004618  00000-0  38620-4 0  9998","TLE_LINE2":"2 55699  42.9993 165.1349 0001035 258.8959 101.1792 15.71369454 13523","SITE":"AFETR","EPHEMERIS_TYPE":"0","PERIOD":"91.640","RA_OF_ASC_NODE":"165.1349"}];
